{"type":"FeatureCollection","features":[{"type":"Feature","properties":{"zip":"74073","median_hh_income":87045,"moe":8697,"population":5881,"reliability":"ok"},"geometry":{"type":"Polygon","coordinates":[[[-95.93726,36.24958],[-95.94277,36.24955],[-95.94275,36.25081],[-95.93788,36.2504],[-95.93759,36.25166],[-95.94038,36.25668],[-95.94537,36.25901],[-95.94622,36.26149],[-95.94469,36.26397],[-95.94647,36.26457],[-95.94771,36.26251],[-95.9491,36.26468],[-95.95286,36.26199],[-95.95416,36.26215],[-95.95507,36.26049],[-95.95637,36.26229],[-95.96349,36.26314],[-95.96403,36.26404],[-95.96484,36.26335],[-95.99177,36.26406],[-95.99189,36.26691],[-95.99324,36.26787],[-95.99221,36.27681],[-95.99342,36.27809],[-96.00199,36.2798],[-96.0072,36.27758],[-96.00733,36.27576],[-96.00891,36.27788],[-96.00978,36.27626],[-96.01214,36.27691],[-96.01171,36.27551],[-96.01464,36.2752],[-96.01374,36.27334],[-96.01445,36.27268],[-96.01623,36.27505],[-96.01724,36.27443],[-96.01638,36.27293],[-96.01904,36.27455],[-96.01991,36.27403],[-96.01908,36.27236],[-96.0203,36.27349],[-96.02282,36.27331],[-96.02333,36.2706],[-96.02462,36.27009],[-96.02531,36.27042],[-96.0251,36.27221],[-96.0275,36.27227],[-96.0282,36.27351],[-96.02959,36.27334],[-96.02934,36.27113],[-96.03155,36.27241],[-96.03185,36.26333],[-96.03441,36.2604],[-96.0361,36.25997],[-96.04168,36.26273],[-96.05047,36.26376],[-96.05644,36.26738],[-96.06754,36.26766],[-96.06752,36.27826],[-96.09925,36.27808],[-96.09922,36.28042],[-96.10294,36.28042],[-96.10292,36.28434],[-96.09918,36.28435],[-96.09914,36.289],[-96.10505,36.28947],[-96.10513,36.30068],[-96.13214,36.3008],[-96.13477,36.30198],[-96.13546,36.30125],[-96.13672,36.30225],[-96.13939,36.30222],[-96.14015,36.3032],[-96.13869,36.30348],[-96.13842,36.31629],[-96.12554,36.31617],[-96.12478,36.32579],[-96.11998,36.32881],[-96.11855,36.3509],[-96.11526,36.36192],[-96.10846,36.36194],[-96.10817,36.35892],[-96.10156,36.35333],[-96.08553,36.35124],[-96.08442,36.346],[-96.06481,36.3465],[-96.06551,36.34504],[-96.06888,36.34406],[-96.06973,36.34254],[-96.07319,36.34159],[-96.06981,36.33588],[-96.06613,36.33533],[-96.05254,36.32277],[-96.05271,36.3181],[-96.04938,36.31809],[-96.04945,36.33249],[-96.04425,36.33252],[-96.04481,36.33145],[-96.04411,36.33029],[-96.0366,36.32822],[-96.03434,36.32984],[-96.03153,36.32975],[-96.02951,36.33181],[-96.02208,36.32619],[-96.02081,36.32695],[-96.02057,36.3298],[-96.01903,36.33199],[-96.01651,36.33239],[-96.01581,36.33063],[-96.01655,36.32871],[-96.0157,36.32729],[-96.01174,36.32616],[-96.01156,36.32933],[-96.00858,36.32996],[-96.0074,36.32849],[-96.00953,36.32429],[-96.00496,36.32607],[-96.0045,36.32481],[-96.00603,36.32235],[-96.00386,36.32198],[-96.00155,36.3237],[-96.00072,36.31909],[-95.9987,36.31957],[-95.99752,36.32339],[-95.99619,36.32302],[-95.99597,36.32149],[-95.99145,36.32138],[-95.99154,36.31626],[-95.98818,36.31649],[-95.9876,36.31473],[-95.99155,36.31478],[-95.99143,36.30749],[-95.97412,36.30744],[-95.97247,36.30526],[-95.97403,36.30316],[-95.97165,36.30036],[-95.96883,36.29958],[-95.96876,36.29838],[-95.97161,36.29589],[-95.96749,36.29542],[-95.96617,36.29419],[-95.96594,36.29615],[-95.96336,36.29696],[-95.96067,36.29344],[-95.95636,36.29572],[-95.95496,36.30007],[-95.95974,36.30124],[-95.96062,36.30312],[-95.95867,36.30479],[-95.95704,36.30499],[-95.95658,36.3035],[-95.95593,36.30459],[-95.95441,36.30428],[-95.95393,36.305],[-95.95555,36.30515],[-95.95608,36.30617],[-95.95453,36.3053],[-95.95411,36.30749],[-95.95946,36.30756],[-95.96055,36.30993],[-95.96286,36.31116],[-95.96323,36.31195],[-95.9602,36.31412],[-95.95983,36.31591],[-95.96611,36.32056],[-95.96527,36.32141],[-95.95584,36.32142],[-95.95584,36.32205],[-95.93765,36.32207],[-95.93764,36.33651],[-95.92011,36.3366],[-95.92001,36.32219],[-95.90209,36.32209],[-95.902,36.28362],[-95.91983,36.28298],[-95.91979,36.2786],[-95.90262,36.2786],[-95.90256,36.26404],[-95.91995,36.26407],[-95.91989,36.24952],[-95.93014,36.24955],[-95.92455,36.25832],[-95.92377,36.26402],[-95.93722,36.26407],[-95.93726,36.24958]]]}},{"type":"Feature","properties":{"zip":"74011","median_hh_income":99157,"moe":3614,"population":33900,"reliability":"ok"},"geometry":{"type":"Polygon","coordinates":[[[-95.78156,35.9539],[-95.78857,35.95762],[-95.79413,35.96292],[-95.79591,35.96279],[-95.80072,35.9593],[-95.81646,35.95947],[-95.82147,35.95052],[-95.8304,35.93813],[-95.83444,35.92902],[-95.83753,35.92865],[-95.84563,35.93169],[-95.85139,35.93253],[-95.85089,35.99206],[-95.8521,35.9961],[-95.85096,36.00284],[-95.86856,36.00286],[-95.86853,36.01738],[-95.76165,36.01744],[-95.76146,35.918],[-95.76378,35.91888],[-95.76748,35.92512],[-95.77206,35.9376],[-95.7707,35.94212],[-95.7709,35.94592],[-95.78156,35.9539]]]}},{"type":"Feature","properties":{"zip":"74115","median_hh_income":44608,"moe":2811,"population":24297,"reliability":"ok"},"geometry":{"type":"Polygon","coordinates":[[[-95.94033,36.20222],[-95.94033,36.20433],[-95.94475,36.20432],[-95.94475,36.20606],[-95.94033,36.2061],[-95.94145,36.21249],[-95.94372,36.21134],[-95.94374,36.2134],[-95.94478,36.21345],[-95.94423,36.21688],[-95.94504,36.22508],[-95.92659,36.22919],[-95.92277,36.23139],[-95.91907,36.22889],[-95.92157,36.22579],[-95.92067,36.22409],[-95.91457,36.22219],[-95.91077,36.22329],[-95.90827,36.22689],[-95.90437,36.22609],[-95.90497,36.22999],[-95.90087,36.22809],[-95.89777,36.22849],[-95.89497,36.23269],[-95.89317,36.23279],[-95.89017,36.23039],[-95.88717,36.23169],[-95.88657,36.23319],[-95.88671,36.22457],[-95.88805,36.22426],[-95.89255,36.21968],[-95.89213,36.21854],[-95.89403,36.21125],[-95.89642,36.20985],[-95.8997,36.20987],[-95.89978,36.20831],[-95.89398,36.2096],[-95.87994,36.22058],[-95.87876,36.21975],[-95.87403,36.22057],[-95.87372,36.21873],[-95.86882,36.21873],[-95.86883,36.21567],[-95.87164,36.21567],[-95.87167,36.21321],[-95.88407,36.21299],[-95.88437,36.20239],[-95.88678,36.20245],[-95.88662,36.19469],[-95.87533,36.19463],[-95.87892,36.19414],[-95.87991,36.19294],[-95.87989,36.1874],[-95.8809,36.18737],[-95.88089,36.18438],[-95.88667,36.1843],[-95.88673,36.18263],[-95.86866,36.18398],[-95.86876,36.17165],[-95.87113,36.17138],[-95.87103,36.16979],[-95.86879,36.1698],[-95.86889,36.16129],[-95.87503,36.16075],[-95.87597,36.15897],[-95.87722,36.16073],[-95.87775,36.15978],[-95.87978,36.15975],[-95.87984,36.16072],[-95.88672,36.16072],[-95.88669,36.15945],[-95.89033,36.15944],[-95.89034,36.16069],[-95.89462,36.16074],[-95.91351,36.15969],[-95.9135,36.16078],[-95.9145,36.16083],[-95.91996,36.15916],[-95.94032,36.15959],[-95.94095,36.16879],[-95.9403,36.17253],[-95.94531,36.17267],[-95.94033,36.1744],[-95.94037,36.1952],[-95.94176,36.19523],[-95.94175,36.19887],[-95.94028,36.19918],[-95.94175,36.19949],[-95.9417,36.20067],[-95.94033,36.20222]]]}},{"type":"Feature","properties":{"zip":"74120","median_hh_income":68255,"moe":5312,"population":5195,"reliability":"small"},"geometry":{"type":"Polygon","coordinates":[[[-95.98096,36.1598],[-95.98122,36.16608],[-95.9804,36.16607],[-95.98043,36.16242],[-95.98008,36.16426],[-95.97563,36.16333],[-95.97564,36.16424],[-95.96711,36.16449],[-95.96709,36.15508],[-95.96797,36.15506],[-95.96793,36.15412],[-95.9671,36.15413],[-95.96711,36.14058],[-95.96833,36.14061],[-95.96826,36.13808],[-95.96711,36.13804],[-95.96721,36.13504],[-95.97042,36.13505],[-95.97041,36.13336],[-95.97729,36.13333],[-95.97729,36.13417],[-95.97888,36.13417],[-95.97893,36.13335],[-95.9818,36.13334],[-95.98157,36.13795],[-95.98334,36.13711],[-95.98255,36.13991],[-95.98315,36.14237],[-95.98061,36.1434],[-95.98368,36.14426],[-95.98565,36.14847],[-95.98451,36.14886],[-95.98497,36.14983],[-95.98657,36.1527],[-95.98772,36.15229],[-95.9883,36.15321],[-95.98702,36.15365],[-95.99161,36.16235],[-95.99286,36.16221],[-95.99353,36.16426],[-95.98585,36.16462],[-95.98429,36.16716],[-95.98474,36.1629],[-95.98394,36.16057],[-95.98096,36.1598]]]}},{"type":"Feature","properties":{"zip":"74116","median_hh_income":55156,"moe":11247,"population":3617,"reliability":"small"},"geometry":{"type":"Polygon","coordinates":[[[-95.86882,36.21873],[-95.8722,36.2187],[-95.87214,36.22054],[-95.85542,36.22054],[-95.85169,36.22379],[-95.85183,36.22051],[-95.83322,36.22025],[-95.81527,36.22445],[-95.81531,36.1877],[-95.79324,36.18836],[-95.78616,36.18701],[-95.77934,36.18309],[-95.77962,36.16062],[-95.82939,36.16067],[-95.83337,36.15899],[-95.83335,36.16065],[-95.85444,36.16066],[-95.85489,36.15948],[-95.8596,36.15956],[-95.85962,36.15525],[-95.86203,36.15523],[-95.8621,36.15851],[-95.86507,36.15856],[-95.86517,36.16069],[-95.86913,36.16105],[-95.86879,36.1698],[-95.87103,36.16979],[-95.87113,36.17138],[-95.86876,36.17165],[-95.86866,36.18398],[-95.88673,36.18263],[-95.88667,36.1843],[-95.88089,36.18438],[-95.8809,36.18737],[-95.87989,36.1874],[-95.87991,36.19294],[-95.87892,36.19414],[-95.87533,36.19463],[-95.88662,36.19469],[-95.88678,36.20245],[-95.88437,36.20239],[-95.88407,36.21299],[-95.87167,36.21321],[-95.87164,36.21567],[-95.86883,36.21567],[-95.86882,36.21873]]]}},{"type":"Feature","properties":{"zip":"74137","median_hh_income":102798,"moe":8693,"population":28533,"reliability":"ok"},"geometry":{"type":"Polygon","coordinates":[[[-95.90423,36.04634],[-95.90437,35.99377],[-95.90736,35.99304],[-95.90439,35.99198],[-95.90444,35.98829],[-95.92225,35.98836],[-95.92227,35.9911],[-95.92446,35.99111],[-95.92446,35.99192],[-95.92672,35.99192],[-95.92668,35.98835],[-95.93105,35.98831],[-95.93983,35.99242],[-95.94849,35.99995],[-95.94777,36.0041],[-95.94978,36.00864],[-95.95045,36.01891],[-95.95199,36.02476],[-95.95736,36.03094],[-95.9621,36.03305],[-95.96358,36.03852],[-95.96597,36.041],[-95.96994,36.04427],[-95.97447,36.0463],[-95.90423,36.04634]]]}},{"type":"Feature","properties":{"zip":"74012","median_hh_income":81456,"moe":2685,"population":65060,"reliability":"ok"},"geometry":{"type":"Polygon","coordinates":[[[-95.79738,36.10443],[-95.79737,36.08996],[-95.76166,36.09029],[-95.76163,36.03192],[-95.76735,36.03194],[-95.76206,36.03162],[-95.7626,36.02894],[-95.76175,36.0283],[-95.76333,36.02773],[-95.76163,36.02731],[-95.76165,36.01744],[-95.85097,36.01732],[-95.8512,36.02473],[-95.85734,36.02711],[-95.85895,36.02837],[-95.85998,36.03098],[-95.8599,36.03191],[-95.85099,36.03185],[-95.85127,36.05638],[-95.85476,36.0574],[-95.85781,36.06088],[-95.85508,36.06089],[-95.85491,36.0588],[-95.851,36.05878],[-95.8512,36.07539],[-95.82407,36.07559],[-95.82407,36.08317],[-95.82169,36.08257],[-95.82768,36.08547],[-95.82433,36.08799],[-95.82406,36.0899],[-95.81531,36.08994],[-95.81532,36.10443],[-95.79738,36.10443]]]}},{"type":"Feature","properties":{"zip":"74108","median_hh_income":59335,"moe":11132,"population":7315,"reliability":"wide"},"geometry":{"type":"Polygon","coordinates":[[[-95.76166,36.13347],[-95.83322,36.13345],[-95.83337,36.15899],[-95.82939,36.16067],[-95.75987,36.16056],[-95.75988,36.16125],[-95.75835,36.16124],[-95.75829,36.16056],[-95.75399,36.16057],[-95.75346,36.15835],[-95.74957,36.15834],[-95.74959,36.15997],[-95.74868,36.16056],[-95.74599,36.16056],[-95.74602,36.15909],[-95.74732,36.15917],[-95.74722,36.15495],[-95.74597,36.15492],[-95.74594,36.15156],[-95.7438,36.15156],[-95.74463,36.15058],[-95.74942,36.15035],[-95.75039,36.14881],[-95.75245,36.14801],[-95.76167,36.14797],[-95.76166,36.13347]]]}},{"type":"Feature","properties":{"zip":"74134","median_hh_income":73119,"moe":3288,"population":23323,"reliability":"ok"},"geometry":{"type":"Polygon","coordinates":[[[-95.83309,36.10452],[-95.83322,36.13345],[-95.76166,36.13347],[-95.76167,36.10061],[-95.76184,36.10443],[-95.77957,36.10441],[-95.77965,36.0902],[-95.79737,36.08996],[-95.79738,36.10443],[-95.81532,36.10443],[-95.81531,36.08994],[-95.82406,36.0899],[-95.82433,36.08799],[-95.82768,36.08547],[-95.82169,36.08257],[-95.82407,36.08317],[-95.82407,36.07559],[-95.83322,36.07557],[-95.8332,36.07721],[-95.83604,36.07778],[-95.84056,36.08104],[-95.84056,36.08423],[-95.83316,36.08427],[-95.83323,36.08817],[-95.85102,36.09555],[-95.85108,36.09885],[-95.85104,36.10177],[-95.84529,36.10172],[-95.84626,36.10447],[-95.83309,36.10452]]]}},{"type":"Feature","properties":{"zip":"74107","median_hh_income":53505,"moe":2837,"population":19013,"reliability":"ok"},"geometry":{"type":"Polygon","coordinates":[[[-95.98607,36.07519],[-96.06769,36.0755],[-96.06769,36.07641],[-96.06655,36.07642],[-96.06655,36.07802],[-96.06878,36.07789],[-96.06866,36.07554],[-96.08776,36.07596],[-96.09171,36.07804],[-96.09214,36.07552],[-96.10107,36.07557],[-96.10103,36.09721],[-96.09709,36.09722],[-96.09705,36.10084],[-96.08448,36.10126],[-96.08446,36.10339],[-96.0809,36.10338],[-96.08085,36.10426],[-96.07876,36.10427],[-96.07876,36.10096],[-96.07556,36.1003],[-96.07548,36.1043],[-96.07424,36.1046],[-96.10107,36.10462],[-96.10091,36.12645],[-96.09539,36.12677],[-96.08825,36.12878],[-96.06918,36.13639],[-96.04106,36.14077],[-96.02618,36.14519],[-96.01138,36.14589],[-96.00083,36.14005],[-95.99218,36.13183],[-95.9874,36.1212],[-95.98587,36.10429],[-95.98795,36.08995],[-95.98607,36.07519]]]}},{"type":"Feature","properties":{"zip":"74135","median_hh_income":62694,"moe":5149,"population":20138,"reliability":"ok"},"geometry":{"type":"Polygon","coordinates":[[[-95.90435,36.0899],[-95.90433,36.07809],[-95.90821,36.07763],[-95.90859,36.07537],[-95.94012,36.07533],[-95.94011,36.08257],[-95.94274,36.08259],[-95.94545,36.08444],[-95.94354,36.08701],[-95.94173,36.08738],[-95.94182,36.0898],[-95.94014,36.08979],[-95.94013,36.09079],[-95.94364,36.09076],[-95.94014,36.09122],[-95.94016,36.09331],[-95.94196,36.09334],[-95.94196,36.09442],[-95.9402,36.09524],[-95.94021,36.09956],[-95.94159,36.09892],[-95.94163,36.10157],[-95.94292,36.10156],[-95.94177,36.10289],[-95.94353,36.10429],[-95.94022,36.10431],[-95.94029,36.11971],[-95.93807,36.11975],[-95.93802,36.1188],[-95.92756,36.11886],[-95.92766,36.12065],[-95.93064,36.12121],[-95.93048,36.12253],[-95.92237,36.11881],[-95.90901,36.11908],[-95.90902,36.11983],[-95.90616,36.11988],[-95.90607,36.12087],[-95.90456,36.12116],[-95.90458,36.11549],[-95.9087,36.11413],[-95.90454,36.11205],[-95.9045,36.10078],[-95.90762,36.10073],[-95.90768,36.09882],[-95.90843,36.09883],[-95.90847,36.10075],[-95.91038,36.1004],[-95.9094,36.09717],[-95.90446,36.0967],[-95.9044,36.09386],[-95.90728,36.09286],[-95.90724,36.0913],[-95.90935,36.0912],[-95.90944,36.08986],[-95.90435,36.0899]]]}},{"type":"Feature","properties":{"zip":"74145","median_hh_income":58706,"moe":4382,"population":18196,"reliability":"ok"},"geometry":{"type":"MultiPolygon","coordinates":[[[[-95.86988,36.11896],[-95.86987,36.1202],[-95.86869,36.1195],[-95.86868,36.11895],[-95.86988,36.11896]]],[[[-95.8866,36.11889],[-95.86988,36.11896],[-95.87106,36.11541],[-95.87066,36.1146],[-95.86869,36.11465],[-95.86862,36.08519],[-95.87211,36.08521],[-95.87201,36.08361],[-95.86862,36.0836],[-95.86956,36.07655],[-95.87094,36.07543],[-95.88011,36.0754],[-95.87983,36.07892],[-95.88072,36.07891],[-95.88225,36.07768],[-95.88649,36.07691],[-95.8864,36.07535],[-95.90859,36.07537],[-95.90821,36.07763],[-95.90433,36.07809],[-95.90435,36.0899],[-95.90944,36.08986],[-95.90935,36.0912],[-95.90724,36.0913],[-95.90728,36.09286],[-95.9044,36.09386],[-95.90446,36.0967],[-95.9094,36.09717],[-95.90939,36.09884],[-95.91027,36.09888],[-95.91038,36.1004],[-95.90847,36.10075],[-95.90843,36.09883],[-95.90768,36.09882],[-95.90762,36.10073],[-95.9045,36.10078],[-95.90454,36.11205],[-95.9087,36.11413],[-95.90458,36.11549],[-95.90454,36.1189],[-95.8885,36.11894],[-95.88661,36.12026],[-95.8866,36.11889]]]]}},{"type":"Feature","properties":{"zip":"74117","median_hh_income":null,"moe":null,"population":52,"reliability":"nodata"},"geometry":{"type":"Polygon","coordinates":[[[-95.93014,36.24955],[-95.91989,36.24952],[-95.91995,36.26407],[-95.90221,36.26404],[-95.9022,36.26325],[-95.86907,36.26408],[-95.86959,36.2634],[-95.86832,36.26033],[-95.87146,36.25695],[-95.87071,36.25563],[-95.87126,36.25469],[-95.86982,36.25471],[-95.86923,36.25605],[-95.8687,36.25522],[-95.86947,36.254],[-95.86641,36.25355],[-95.86592,36.25161],[-95.86738,36.24821],[-95.85817,36.24909],[-95.85427,36.24619],[-95.85347,36.23939],[-95.84823,36.23905],[-95.85169,36.22379],[-95.85542,36.22054],[-95.87214,36.22054],[-95.8722,36.2187],[-95.87372,36.21873],[-95.87403,36.22057],[-95.87876,36.21975],[-95.87994,36.22058],[-95.89398,36.2096],[-95.89978,36.20831],[-95.8997,36.20987],[-95.89642,36.20985],[-95.89403,36.21125],[-95.89213,36.21854],[-95.89255,36.21968],[-95.88805,36.22426],[-95.88671,36.22457],[-95.88657,36.23319],[-95.88717,36.23169],[-95.89017,36.23039],[-95.89317,36.23279],[-95.89497,36.23269],[-95.89777,36.22849],[-95.90087,36.22809],[-95.90497,36.22999],[-95.90437,36.22609],[-95.90827,36.22689],[-95.91077,36.22329],[-95.91457,36.22219],[-95.92067,36.22409],[-95.92157,36.22579],[-95.91907,36.22889],[-95.92277,36.23139],[-95.92659,36.22919],[-95.94527,36.22506],[-95.94489,36.23827],[-95.94284,36.24121],[-95.93236,36.24955],[-95.93687,36.24957],[-95.93722,36.26407],[-95.92377,36.26402],[-95.92455,36.25832],[-95.93014,36.24955]]]}},{"type":"Feature","properties":{"zip":"74131","median_hh_income":76382,"moe":20316,"population":2435,"reliability":"small"},"geometry":{"type":"Polygon","coordinates":[[[-96.09214,36.07552],[-96.09171,36.07804],[-96.08776,36.07596],[-96.0632,36.0755],[-96.06543,36.07533],[-96.06543,36.07452],[-96.06985,36.07446],[-96.06992,36.06914],[-96.06761,36.06912],[-96.06695,36.06819],[-96.06326,36.07006],[-96.06322,36.07274],[-96.061,36.07269],[-96.06096,36.07108],[-96.05663,36.07367],[-96.05649,36.07524],[-96.05758,36.07547],[-96.04462,36.07545],[-96.04725,36.07253],[-96.04753,36.06862],[-96.04192,36.06665],[-96.04082,36.06358],[-96.04153,36.06101],[-96.04775,36.06096],[-96.04772,36.06017],[-96.0417,36.06066],[-96.04045,36.05972],[-96.0374,36.06095],[-96.03546,36.0599],[-96.03515,36.06096],[-96.03298,36.06096],[-96.03366,36.06084],[-96.03396,36.05484],[-96.02953,36.05527],[-96.02955,36.05003],[-96.02994,36.05393],[-96.03396,36.05395],[-96.03396,36.05253],[-96.03843,36.05253],[-96.03853,36.04642],[-96.04402,36.04628],[-96.04738,36.04342],[-96.04746,36.03192],[-96.04847,36.03192],[-96.04848,36.03022],[-96.04962,36.03021],[-96.04965,36.02888],[-96.04848,36.02841],[-96.0485,36.0235],[-96.04754,36.02325],[-96.05224,36.01798],[-96.05417,36.01877],[-96.05251,36.02197],[-96.05753,36.02416],[-96.05895,36.03104],[-96.06408,36.03622],[-96.06517,36.03582],[-96.06534,36.03193],[-96.07155,36.03201],[-96.07047,36.03167],[-96.07048,36.02886],[-96.07239,36.02886],[-96.07239,36.03003],[-96.07376,36.03002],[-96.0738,36.02469],[-96.07422,36.02975],[-96.0751,36.02999],[-96.07468,36.03204],[-96.08232,36.03201],[-96.08326,36.03125],[-96.08325,36.02892],[-96.08491,36.02852],[-96.08906,36.02904],[-96.08648,36.03284],[-96.08829,36.03196],[-96.10116,36.03201],[-96.10115,36.03676],[-96.10005,36.03927],[-96.10129,36.03931],[-96.1008,36.05651],[-96.09977,36.05612],[-96.09982,36.06129],[-96.09873,36.06128],[-96.09949,36.06279],[-96.10116,36.0633],[-96.10023,36.07541],[-96.09214,36.07552]]]}},{"type":"Feature","properties":{"zip":"74041","median_hh_income":83365,"moe":6037,"population":3073,"reliability":"small"},"geometry":{"type":"Polygon","coordinates":[[[-96.07414,35.95879],[-96.02948,35.9592],[-96.02954,35.91563],[-96.04024,35.91564],[-96.04023,35.91493],[-96.04202,35.91493],[-96.06121,35.91564],[-96.06262,35.93751],[-96.06368,35.94103],[-96.06956,35.94106],[-96.07047,35.94302],[-96.07337,35.94174],[-96.07463,35.94473],[-96.08399,35.94481],[-96.08395,35.95207],[-96.101,35.95206],[-96.10099,35.95988],[-96.08491,35.96003],[-96.08492,35.96652],[-96.08341,35.96729],[-96.08329,35.96575],[-96.07414,35.95879]]]}},{"type":"Feature","properties":{"zip":"74106","median_hh_income":40776,"moe":5375,"population":15655,"reliability":"ok"},"geometry":{"type":"Polygon","coordinates":[[[-96.00201,36.16926],[-96.00317,36.16929],[-96.00318,36.17022],[-96.00297,36.17268],[-96.00119,36.17332],[-96.00142,36.22064],[-95.98787,36.22049],[-95.98787,36.21948],[-95.9857,36.21947],[-95.98454,36.2195],[-95.98453,36.22047],[-95.96934,36.22057],[-95.96933,36.21386],[-95.96666,36.21292],[-95.96667,36.21411],[-95.96527,36.21391],[-95.96547,36.21481],[-95.96437,36.215],[-95.96117,36.21279],[-95.96187,36.2119],[-95.96296,36.21281],[-95.96266,36.21211],[-95.96446,36.21122],[-95.96265,36.20973],[-95.96275,36.20883],[-95.96584,36.20955],[-95.96713,36.20855],[-95.96643,36.20796],[-95.96902,36.20607],[-95.95825,36.20614],[-95.9582,36.20478],[-95.96713,36.20096],[-95.96728,36.1989],[-95.96967,36.19819],[-95.9701,36.19743],[-95.96783,36.19562],[-95.96888,36.19542],[-95.96907,36.1941],[-95.96688,36.18993],[-95.96771,36.18113],[-95.97111,36.18002],[-95.9711,36.17908],[-95.97547,36.17891],[-95.97546,36.17693],[-95.97324,36.17702],[-95.96607,36.18198],[-95.96561,36.18142],[-95.96705,36.18039],[-95.96717,36.17609],[-95.96831,36.17608],[-95.96827,36.17519],[-95.96719,36.17522],[-95.96831,36.17342],[-95.96714,36.17342],[-95.96715,36.16785],[-95.96825,36.16784],[-95.96825,36.16687],[-95.96711,36.16687],[-95.96711,36.16449],[-95.97564,36.16424],[-95.97563,36.16333],[-95.98008,36.16426],[-95.98043,36.16242],[-95.9804,36.16607],[-95.98122,36.16608],[-95.98096,36.1598],[-95.98394,36.16057],[-95.98474,36.1629],[-95.98429,36.16716],[-95.98585,36.16462],[-95.99353,36.16426],[-95.99346,36.16346],[-95.99716,36.16207],[-96.00077,36.16242],[-96.00105,36.16129],[-96.00263,36.16131],[-96.00204,36.16457],[-96.00316,36.16458],[-96.00315,36.16818],[-96.00188,36.16812],[-96.00201,36.16926]]]}},{"type":"Feature","properties":{"zip":"74037","median_hh_income":103942,"moe":8184,"population":24547,"reliability":"ok"},"geometry":{"type":"MultiPolygon","coordinates":[[[[-96.01469,36.00744],[-96.01848,36.00697],[-96.01874,36.0029],[-96.02249,36.00288],[-96.02268,36.00618],[-96.02107,36.00616],[-96.02112,36.00834],[-96.01679,36.00882],[-96.01469,36.00744]]],[[[-95.98915,35.97318],[-95.97644,35.97304],[-95.9766,35.9663],[-95.98268,35.96615],[-95.98281,35.9679],[-95.98539,35.9679],[-95.98535,35.96954],[-95.98919,35.96965],[-95.98915,35.97318]]],[[[-95.95251,36.02506],[-95.95045,36.01891],[-95.94978,36.00864],[-95.94777,36.0041],[-95.94849,35.99995],[-95.93983,35.99242],[-95.93105,35.98831],[-95.94023,35.98827],[-95.94017,35.98537],[-95.93497,35.98108],[-95.93461,35.97748],[-95.94021,35.97378],[-96.01149,35.97368],[-96.01205,36.02406],[-96.01003,36.03195],[-95.99158,36.03194],[-95.98775,36.03058],[-95.98496,36.03195],[-95.97589,36.03196],[-95.97627,36.05009],[-95.97447,36.0463],[-95.96888,36.04361],[-95.96358,36.03852],[-95.9621,36.03305],[-95.95736,36.03094],[-95.95251,36.02506]]]]}},{"type":"Feature","properties":{"zip":"74146","median_hh_income":46865,"moe":4114,"population":16507,"reliability":"ok"},"geometry":{"type":"Polygon","coordinates":[[[-95.86862,36.08519],[-95.86869,36.11465],[-95.87066,36.1146],[-95.87106,36.11541],[-95.86988,36.11896],[-95.86519,36.11964],[-95.86481,36.11899],[-95.85361,36.11897],[-95.85369,36.11976],[-95.84752,36.12019],[-95.84712,36.11896],[-95.83324,36.11893],[-95.83309,36.10452],[-95.84626,36.10447],[-95.84529,36.10172],[-95.85104,36.10177],[-95.85108,36.09885],[-95.85102,36.09555],[-95.83323,36.08817],[-95.83316,36.08427],[-95.84056,36.08423],[-95.84056,36.08104],[-95.83604,36.07778],[-95.8332,36.07721],[-95.83322,36.07557],[-95.87094,36.07543],[-95.86956,36.07655],[-95.86976,36.07821],[-95.86856,36.07956],[-95.86862,36.0836],[-95.87201,36.08361],[-95.87211,36.08521],[-95.86862,36.08519]]]}},{"type":"Feature","properties":{"zip":"74112","median_hh_income":58951,"moe":2620,"population":21386,"reliability":"ok"},"geometry":{"type":"Polygon","coordinates":[[[-95.94038,36.14419],[-95.94035,36.15274],[-95.94145,36.15272],[-95.94156,36.15468],[-95.94032,36.15469],[-95.94032,36.15959],[-95.91996,36.15916],[-95.9145,36.16083],[-95.9135,36.16078],[-95.91351,36.15969],[-95.89462,36.16074],[-95.89034,36.16069],[-95.89033,36.15944],[-95.88669,36.15945],[-95.88672,36.16072],[-95.87984,36.16072],[-95.87978,36.15975],[-95.87775,36.15978],[-95.87722,36.16073],[-95.87597,36.15897],[-95.87503,36.16075],[-95.87499,36.15971],[-95.87397,36.15972],[-95.87396,36.15791],[-95.8707,36.15687],[-95.87103,36.15525],[-95.8721,36.15524],[-95.87173,36.15208],[-95.87318,36.14989],[-95.875,36.1493],[-95.87494,36.148],[-95.87237,36.14979],[-95.87176,36.14799],[-95.86882,36.14798],[-95.86767,36.14577],[-95.86816,36.13933],[-95.8703,36.13347],[-95.88894,36.13346],[-95.88892,36.139],[-95.89003,36.13899],[-95.89007,36.14068],[-95.89114,36.14072],[-95.89127,36.1362],[-95.8951,36.13596],[-95.89513,36.13505],[-95.89378,36.1349],[-95.89404,36.13348],[-95.92248,36.13331],[-95.92252,36.14055],[-95.93032,36.14056],[-95.93054,36.13772],[-95.93588,36.13694],[-95.93588,36.1333],[-95.94035,36.13324],[-95.94033,36.14236],[-95.94149,36.14238],[-95.94149,36.14419],[-95.94038,36.14419]]]}},{"type":"Feature","properties":{"zip":"74130","median_hh_income":46691,"moe":7732,"population":2212,"reliability":"wide"},"geometry":{"type":"Polygon","coordinates":[[[-95.9673,36.22825],[-95.967,36.24229],[-95.97349,36.24241],[-95.97308,36.24591],[-95.96743,36.24602],[-95.96751,36.24957],[-95.96471,36.24957],[-95.96486,36.26042],[-95.96673,36.26041],[-95.96649,36.26223],[-95.96486,36.26223],[-95.96484,36.26405],[-95.96349,36.26314],[-95.95637,36.26229],[-95.95507,36.26049],[-95.95416,36.26215],[-95.95286,36.26199],[-95.9491,36.26468],[-95.94771,36.26251],[-95.94647,36.26457],[-95.94469,36.26397],[-95.94622,36.26149],[-95.94537,36.25901],[-95.94038,36.25668],[-95.93759,36.25166],[-95.93788,36.2504],[-95.94275,36.25081],[-95.94277,36.24955],[-95.93236,36.24955],[-95.94284,36.24121],[-95.94489,36.23827],[-95.94527,36.22506],[-95.94757,36.22329],[-95.94927,36.22319],[-95.94907,36.22139],[-95.95107,36.21909],[-95.95267,36.22059],[-95.95828,36.22066],[-95.96204,36.21903],[-95.96547,36.21481],[-95.96527,36.21391],[-95.96667,36.21411],[-95.96666,36.21292],[-95.96933,36.21386],[-95.96934,36.22057],[-95.96606,36.22058],[-95.9661,36.22419],[-95.965,36.22421],[-95.96504,36.22699],[-95.96671,36.22695],[-95.9673,36.22825]]]}},{"type":"Feature","properties":{"zip":"74066","median_hh_income":64698,"moe":2883,"population":32292,"reliability":"ok"},"geometry":{"type":"Polygon","coordinates":[[[-96.07452,35.95911],[-96.08329,35.96575],[-96.08341,35.96729],[-96.08492,35.96652],[-96.08491,35.96003],[-96.10099,35.95988],[-96.101,35.95206],[-96.08395,35.95207],[-96.08399,35.94481],[-96.07463,35.94473],[-96.07337,35.94174],[-96.07047,35.94302],[-96.06956,35.94106],[-96.06368,35.94103],[-96.06262,35.93751],[-96.06121,35.91564],[-96.06515,35.91562],[-96.06529,35.91481],[-96.10777,35.91506],[-96.10804,35.91207],[-96.10686,35.9092],[-96.10503,35.90832],[-96.10653,35.90832],[-96.10446,35.90166],[-96.10337,35.90089],[-96.10451,35.8957],[-96.10601,35.89459],[-96.10601,35.89338],[-96.13947,35.89335],[-96.13974,35.85727],[-96.15954,35.85718],[-96.15816,35.85854],[-96.15867,35.86035],[-96.15678,35.8645],[-96.15736,35.86703],[-96.1585,35.8678],[-96.15665,35.87057],[-96.15789,35.87132],[-96.15763,35.87237],[-96.15627,35.87373],[-96.15722,35.87635],[-96.15727,35.89341],[-96.18314,35.89408],[-96.18403,35.90118],[-96.18156,35.90115],[-96.1799,35.89688],[-96.17444,35.89927],[-96.17113,35.8956],[-96.16925,35.89925],[-96.16533,35.89965],[-96.16509,35.90286],[-96.16264,35.90144],[-96.16251,35.8993],[-96.161,35.89843],[-96.15922,35.89873],[-96.15718,35.90113],[-96.15475,35.9012],[-96.15471,35.90816],[-96.16479,35.90879],[-96.1674,35.90747],[-96.17259,35.90723],[-96.17269,35.91166],[-96.17614,35.91172],[-96.17801,35.91529],[-96.17676,35.91837],[-96.17238,35.91809],[-96.17238,35.92861],[-96.19007,35.92904],[-96.19006,35.94482],[-96.16331,35.94478],[-96.16363,35.97393],[-96.16386,35.9522],[-96.18087,35.9523],[-96.18135,35.95943],[-96.19002,35.95936],[-96.19067,35.97065],[-96.1896,35.98161],[-96.19272,35.98165],[-96.19173,35.98491],[-96.18847,35.98846],[-96.19175,35.98847],[-96.25286,35.9447],[-96.26182,35.94479],[-96.2618,35.95752],[-96.25833,35.95757],[-96.25793,35.95862],[-96.26181,35.95927],[-96.26181,35.96197],[-96.25583,35.96191],[-96.25583,35.96715],[-96.25896,35.96729],[-96.2528,35.97382],[-96.26186,35.97384],[-96.26208,35.97478],[-96.2658,35.9742],[-96.28183,35.97868],[-96.28196,35.97775],[-96.28448,35.97636],[-96.29555,35.97808],[-96.29743,35.97786],[-96.29828,35.97658],[-96.30011,35.97081],[-96.29922,35.96984],[-96.30212,35.97047],[-96.30145,35.96925],[-96.30331,35.96918],[-96.3147,35.97876],[-96.31469,35.98145],[-96.31274,35.98271],[-96.31364,35.98363],[-96.31696,35.98509],[-96.31834,35.98434],[-96.32128,35.98464],[-96.32501,35.98693],[-96.31306,35.9885],[-96.31316,35.99223],[-96.31516,35.99233],[-96.31579,35.99348],[-96.31543,35.99561],[-96.31622,35.99619],[-96.31587,35.99869],[-96.31691,36.00301],[-96.31601,36.00606],[-96.31782,36.01029],[-96.32434,36.01054],[-96.32482,36.00865],[-96.32808,36.00767],[-96.33202,36.00323],[-96.33577,36.0045],[-96.33695,36.00371],[-96.33751,36.0074],[-96.33418,36.01277],[-96.33446,36.01775],[-96.3242,36.01769],[-96.32417,36.03217],[-96.32054,36.03095],[-96.32059,36.03558],[-96.31362,36.04052],[-96.31147,36.04577],[-96.29978,36.04732],[-96.29755,36.04946],[-96.29755,36.04663],[-96.28889,36.04663],[-96.28735,36.04566],[-96.28211,36.04687],[-96.27865,36.04942],[-96.27247,36.04934],[-96.27092,36.05483],[-96.2635,36.05907],[-96.26153,36.06207],[-96.25863,36.06301],[-96.25616,36.06237],[-96.25492,36.06059],[-96.20824,36.06116],[-96.20807,36.04665],[-96.18994,36.04666],[-96.19003,36.07498],[-96.16601,36.07496],[-96.16601,36.0733],[-96.16212,36.07214],[-96.15838,36.06783],[-96.15785,36.06896],[-96.15872,36.06905],[-96.15868,36.07046],[-96.15589,36.07487],[-96.15431,36.07577],[-96.11446,36.07574],[-96.1145,36.07935],[-96.11184,36.07937],[-96.11004,36.07874],[-96.11012,36.07578],[-96.10122,36.07584],[-96.10105,36.07849],[-96.10107,36.07557],[-96.09677,36.07553],[-96.10023,36.07541],[-96.1001,36.07107],[-96.1011,36.07114],[-96.10116,36.0633],[-96.09949,36.06279],[-96.09873,36.06128],[-96.09982,36.06129],[-96.09977,36.05612],[-96.1008,36.05651],[-96.10129,36.03931],[-96.10005,36.03927],[-96.10115,36.03676],[-96.10116,36.03201],[-96.08829,36.03196],[-96.08648,36.03284],[-96.08906,36.02904],[-96.08491,36.02852],[-96.08325,36.02892],[-96.08326,36.03125],[-96.08232,36.03201],[-96.07468,36.03204],[-96.0751,36.02999],[-96.07422,36.02975],[-96.0738,36.02469],[-96.07376,36.03002],[-96.07239,36.03003],[-96.07239,36.02886],[-96.07048,36.02886],[-96.07047,36.03167],[-96.07155,36.03201],[-96.06534,36.03193],[-96.06517,36.03582],[-96.06411,36.03623],[-96.05895,36.03104],[-96.05753,36.02416],[-96.05248,36.02191],[-96.05417,36.01884],[-96.05304,36.01806],[-96.05212,36.01808],[-96.04766,36.02316],[-96.04501,36.02422],[-96.04282,36.02214],[-96.03801,36.02193],[-96.03492,36.01961],[-96.03378,36.02003],[-96.0335,36.0224],[-96.03127,36.01928],[-96.03102,36.01609],[-96.02851,36.01491],[-96.02079,36.01674],[-96.01866,36.01567],[-96.0119,36.01558],[-96.01184,35.98838],[-96.02954,35.98839],[-96.02948,35.9592],[-96.07452,35.95911]],[[-96.02249,36.00288],[-96.01874,36.0029],[-96.01848,36.00697],[-96.01469,36.00744],[-96.01679,36.00882],[-96.02112,36.00834],[-96.02107,36.00616],[-96.02268,36.00618],[-96.02279,36.00498],[-96.02249,36.00288]]]}},{"type":"Feature","properties":{"zip":"74063","median_hh_income":73842,"moe":6233,"population":31370,"reliability":"ok"},"geometry":{"type":"Polygon","coordinates":[[[-96.19253,36.28203],[-96.18168,36.27858],[-96.17498,36.27445],[-96.17465,36.26932],[-96.16814,36.2647],[-96.16777,36.25845],[-96.16497,36.25695],[-96.16387,36.25471],[-96.16163,36.25335],[-96.1571,36.25426],[-96.15669,36.24896],[-96.15814,36.24483],[-96.16496,36.24457],[-96.16452,36.24175],[-96.16196,36.23933],[-96.16185,36.23584],[-96.16546,36.22878],[-96.16182,36.23078],[-96.15549,36.23191],[-96.15463,36.23828],[-96.1556,36.24036],[-96.15725,36.24088],[-96.155,36.24183],[-96.15547,36.24283],[-96.15407,36.24332],[-96.153,36.24526],[-96.13103,36.24519],[-96.13247,36.24668],[-96.13139,36.2503],[-96.12796,36.2525],[-96.12248,36.25308],[-96.12165,36.25552],[-96.11809,36.25587],[-96.11414,36.25484],[-96.11628,36.25361],[-96.11229,36.25233],[-96.11081,36.25374],[-96.10804,36.25381],[-96.10968,36.25455],[-96.10933,36.25526],[-96.10589,36.25516],[-96.10371,36.25701],[-96.10299,36.24479],[-96.09901,36.24463],[-96.09922,36.24141],[-96.0954,36.24115],[-96.0941,36.23785],[-96.09116,36.23557],[-96.09055,36.23283],[-96.09059,36.21625],[-96.09131,36.21624],[-96.0908,36.16108],[-96.08294,36.16095],[-96.08373,36.16041],[-96.08338,36.13089],[-96.09539,36.12677],[-96.10091,36.12645],[-96.10107,36.10462],[-96.07424,36.1046],[-96.07548,36.1043],[-96.07556,36.1003],[-96.07876,36.10096],[-96.07876,36.10427],[-96.08085,36.10426],[-96.0809,36.10338],[-96.08446,36.10339],[-96.08448,36.10126],[-96.09705,36.10084],[-96.09709,36.09722],[-96.10103,36.09721],[-96.10122,36.07584],[-96.11012,36.07578],[-96.11004,36.07874],[-96.11184,36.07937],[-96.1145,36.07935],[-96.11446,36.07574],[-96.15431,36.07577],[-96.15589,36.07487],[-96.15868,36.07046],[-96.15872,36.06905],[-96.15785,36.06896],[-96.15838,36.06783],[-96.16212,36.07214],[-96.16601,36.0733],[-96.16601,36.07496],[-96.19003,36.07498],[-96.18994,36.04666],[-96.20807,36.04665],[-96.20824,36.06116],[-96.25492,36.06059],[-96.25616,36.06237],[-96.25851,36.06302],[-96.26153,36.06207],[-96.2635,36.05907],[-96.27092,36.05483],[-96.27247,36.04934],[-96.27865,36.04942],[-96.28211,36.04687],[-96.28735,36.04566],[-96.28889,36.04663],[-96.29755,36.04663],[-96.29755,36.04946],[-96.29978,36.04732],[-96.30627,36.04603],[-96.3097,36.04639],[-96.31169,36.04548],[-96.31362,36.04052],[-96.32059,36.03558],[-96.32149,36.03888],[-96.32418,36.04118],[-96.32422,36.05391],[-96.34464,36.05501],[-96.34525,36.05658],[-96.3459,36.05628],[-96.34467,36.05875],[-96.34565,36.06126],[-96.34408,36.06243],[-96.34421,36.0638],[-96.34075,36.06903],[-96.34143,36.06969],[-96.33736,36.07129],[-96.33815,36.07377],[-96.33486,36.07659],[-96.33465,36.07868],[-96.33309,36.0793],[-96.33223,36.07849],[-96.33222,36.07968],[-96.33523,36.08032],[-96.33501,36.08416],[-96.33381,36.08531],[-96.33094,36.08419],[-96.33172,36.08595],[-96.32908,36.08774],[-96.3299,36.08933],[-96.33142,36.08743],[-96.33314,36.08949],[-96.33174,36.09137],[-96.33272,36.09667],[-96.33,36.09631],[-96.33121,36.09707],[-96.33058,36.0976],[-96.33235,36.09791],[-96.33197,36.09901],[-96.33025,36.09873],[-96.33153,36.10073],[-96.32252,36.09727],[-96.31194,36.10356],[-96.30917,36.09824],[-96.30457,36.10006],[-96.30037,36.10025],[-96.29921,36.09797],[-96.30242,36.09766],[-96.30224,36.09372],[-96.29964,36.09422],[-96.30007,36.09682],[-96.29781,36.09651],[-96.29789,36.16228],[-96.26829,36.16198],[-96.27021,36.16762],[-96.26918,36.17368],[-96.26419,36.17978],[-96.24756,36.19155],[-96.24397,36.19696],[-96.24305,36.20024],[-96.24282,36.20473],[-96.24461,36.21081],[-96.24634,36.21468],[-96.25108,36.22095],[-96.25055,36.23097],[-96.24973,36.23148],[-96.25012,36.23041],[-96.2486,36.22742],[-96.24676,36.22588],[-96.24569,36.22652],[-96.24628,36.23349],[-96.24471,36.23561],[-96.24102,36.23782],[-96.23867,36.24251],[-96.23406,36.24377],[-96.22907,36.24276],[-96.22219,36.24413],[-96.22006,36.24318],[-96.22574,36.25076],[-96.21984,36.25441],[-96.21989,36.258],[-96.2181,36.26344],[-96.21283,36.26696],[-96.20712,36.28351],[-96.20232,36.28439],[-96.20175,36.29208],[-96.19935,36.28973],[-96.19282,36.28874],[-96.19253,36.28203]]]}},{"type":"Feature","properties":{"zip":"74128","median_hh_income":52195,"moe":5003,"population":13751,"reliability":"ok"},"geometry":{"type":"Polygon","coordinates":[[[-95.83322,36.13345],[-95.8474,36.13347],[-95.84743,36.13471],[-95.84949,36.13471],[-95.84947,36.13345],[-95.86,36.13347],[-95.86024,36.13952],[-95.86839,36.13348],[-95.8703,36.13347],[-95.86816,36.13933],[-95.86767,36.14676],[-95.86879,36.14691],[-95.86882,36.14798],[-95.87176,36.14799],[-95.87237,36.14979],[-95.87494,36.148],[-95.875,36.1493],[-95.87318,36.14989],[-95.87173,36.15208],[-95.8721,36.15524],[-95.87103,36.15525],[-95.8707,36.15687],[-95.87396,36.15791],[-95.87397,36.15972],[-95.87499,36.15971],[-95.87503,36.16075],[-95.86517,36.16069],[-95.86507,36.15856],[-95.8621,36.15851],[-95.86203,36.15523],[-95.85962,36.15525],[-95.8596,36.15956],[-95.85489,36.15948],[-95.85444,36.16066],[-95.83335,36.16065],[-95.83322,36.13345]]]}},{"type":"Feature","properties":{"zip":"74105","median_hh_income":69547,"moe":5034,"population":26951,"reliability":"ok"},"geometry":{"type":"Polygon","coordinates":[[[-95.98697,36.11899],[-95.95815,36.11879],[-95.95817,36.11961],[-95.94027,36.11877],[-95.94022,36.10431],[-95.94353,36.10429],[-95.94177,36.10289],[-95.94292,36.10156],[-95.94163,36.10157],[-95.94159,36.09892],[-95.94021,36.09956],[-95.9402,36.09524],[-95.94196,36.09442],[-95.94196,36.09334],[-95.94016,36.09331],[-95.94014,36.09122],[-95.94364,36.09076],[-95.94013,36.09079],[-95.94014,36.08979],[-95.94182,36.0898],[-95.94173,36.08738],[-95.94354,36.08701],[-95.94545,36.08444],[-95.94274,36.08259],[-95.94011,36.08257],[-95.94012,36.07533],[-95.94258,36.07699],[-95.94465,36.07719],[-95.9484,36.0771],[-95.9507,36.0753],[-95.95559,36.07529],[-95.95611,36.07599],[-95.95476,36.078],[-95.95688,36.07609],[-95.95914,36.07627],[-95.95998,36.07528],[-95.97381,36.07523],[-95.97232,36.07595],[-95.97414,36.07592],[-95.97423,36.07696],[-95.97517,36.07696],[-95.97517,36.07533],[-95.97392,36.07523],[-95.98607,36.07519],[-95.98795,36.08995],[-95.98587,36.10429],[-95.98697,36.11899]]]}},{"type":"Feature","properties":{"zip":"74129","median_hh_income":49677,"moe":4680,"population":18382,"reliability":"ok"},"geometry":{"type":"Polygon","coordinates":[[[-95.8885,36.11894],[-95.90454,36.1189],[-95.90459,36.12376],[-95.90631,36.12495],[-95.90624,36.12626],[-95.90457,36.12662],[-95.90459,36.12986],[-95.90697,36.12986],[-95.907,36.13325],[-95.89404,36.13348],[-95.89378,36.1349],[-95.89513,36.13505],[-95.8951,36.13596],[-95.89127,36.1362],[-95.89114,36.14072],[-95.89007,36.14068],[-95.89003,36.13899],[-95.88892,36.139],[-95.88894,36.13346],[-95.86839,36.13348],[-95.86024,36.13952],[-95.86,36.13347],[-95.84947,36.13345],[-95.84949,36.13471],[-95.84743,36.13471],[-95.8474,36.13347],[-95.83322,36.13345],[-95.83324,36.11893],[-95.84712,36.11896],[-95.84752,36.12019],[-95.85369,36.11976],[-95.85361,36.11897],[-95.86481,36.11899],[-95.86987,36.1202],[-95.86988,36.11896],[-95.8866,36.11889],[-95.88661,36.12026],[-95.8885,36.11894]]]}},{"type":"Feature","properties":{"zip":"74050","median_hh_income":53750,"moe":25506,"population":431,"reliability":"small"},"geometry":{"type":"MultiPolygon","coordinates":[[[[-96.06878,36.07789],[-96.06655,36.07802],[-96.06655,36.07642],[-96.06861,36.0755],[-96.06878,36.07789]]],[[[-96.06992,36.06914],[-96.06976,36.07454],[-96.06543,36.07452],[-96.06543,36.07533],[-96.0632,36.0755],[-96.05649,36.07524],[-96.05663,36.07367],[-96.06096,36.07108],[-96.061,36.07269],[-96.06322,36.07274],[-96.06326,36.07006],[-96.0658,36.06825],[-96.06992,36.06914]]]]}},{"type":"Feature","properties":{"zip":"74055","median_hh_income":87506,"moe":4721,"population":51381,"reliability":"ok"},"geometry":{"type":"Polygon","coordinates":[[[-95.90209,36.32209],[-95.7584,36.32186],[-95.7584,36.30736],[-95.73561,36.30748],[-95.73558,36.30493],[-95.73153,36.30491],[-95.73141,36.29331],[-95.74007,36.2931],[-95.74021,36.27921],[-95.74989,36.27943],[-95.7499,36.27721],[-95.74843,36.27561],[-95.74686,36.27547],[-95.74785,36.27448],[-95.74619,36.27379],[-95.7482,36.27091],[-95.744,36.26957],[-95.74524,36.26888],[-95.74648,36.26999],[-95.74709,36.26902],[-95.745,36.26792],[-95.74457,36.2638],[-95.74238,36.26215],[-95.74018,36.25833],[-95.74264,36.25468],[-95.74285,36.24952],[-95.74697,36.24886],[-95.75528,36.2421],[-95.75891,36.23619],[-95.75902,36.23276],[-95.76002,36.23251],[-95.76004,36.23516],[-95.76618,36.23487],[-95.76689,36.23202],[-95.8099,36.226],[-95.81523,36.22817],[-95.81527,36.22445],[-95.82971,36.22063],[-95.85183,36.22051],[-95.84823,36.23905],[-95.85347,36.23939],[-95.85427,36.24619],[-95.85817,36.24909],[-95.86738,36.24821],[-95.86592,36.25161],[-95.86641,36.25355],[-95.86947,36.254],[-95.8687,36.25522],[-95.86923,36.25605],[-95.86982,36.25471],[-95.87126,36.25469],[-95.87071,36.25563],[-95.87146,36.25695],[-95.86832,36.26033],[-95.86959,36.2634],[-95.86907,36.26408],[-95.9022,36.26325],[-95.90262,36.2786],[-95.91979,36.2786],[-95.91983,36.28298],[-95.902,36.28362],[-95.90209,36.32209]]]}},{"type":"Feature","properties":{"zip":"74133","median_hh_income":74005,"moe":2794,"population":48699,"reliability":"ok"},"geometry":{"type":"Polygon","coordinates":[[[-95.90434,36.0028],[-95.90423,36.04634],[-95.90861,36.04642],[-95.90667,36.04695],[-95.90664,36.04958],[-95.90423,36.04956],[-95.90433,36.07539],[-95.8864,36.07535],[-95.88649,36.07691],[-95.87983,36.07892],[-95.88011,36.0754],[-95.8512,36.07539],[-95.851,36.05878],[-95.85491,36.0588],[-95.85508,36.06089],[-95.85781,36.06088],[-95.85476,36.0574],[-95.85127,36.05638],[-95.85099,36.03185],[-95.8599,36.03191],[-95.85998,36.03098],[-95.85895,36.02837],[-95.85734,36.02711],[-95.8512,36.02473],[-95.85097,36.01732],[-95.86853,36.01738],[-95.86856,36.00286],[-95.881,36.00284],[-95.88144,36.00568],[-95.88244,36.00569],[-95.88306,36.0029],[-95.90434,36.0028]]]}},{"type":"Feature","properties":{"zip":"74033","median_hh_income":80542,"moe":6211,"population":13745,"reliability":"ok"},"geometry":{"type":"MultiPolygon","coordinates":[[[[-95.97596,35.96399],[-95.97866,35.96402],[-95.97862,35.9657],[-95.97596,35.96574],[-95.97596,35.96399]]],[[[-96.02954,35.91563],[-96.02954,35.98839],[-96.01157,35.98837],[-96.01149,35.97368],[-95.97939,35.97371],[-95.98915,35.97318],[-95.98919,35.96965],[-95.98766,35.9696],[-95.98766,35.96814],[-95.99173,35.96753],[-95.98606,35.96688],[-95.98546,35.95916],[-95.97594,35.95924],[-95.97596,35.94471],[-95.99388,35.94442],[-95.99384,35.93015],[-95.97596,35.93017],[-95.97598,35.91565],[-96.01173,35.91563],[-96.01166,35.90893],[-96.01186,35.91186],[-96.01404,35.91177],[-96.01573,35.90644],[-96.01583,35.90098],[-96.01839,35.90105],[-96.01838,35.90458],[-96.02182,35.90458],[-96.02175,35.91225],[-96.02867,35.91225],[-96.02875,35.91564],[-96.02954,35.91563]]]]}},{"type":"Feature","properties":{"zip":"74114","median_hh_income":98222,"moe":6950,"population":15944,"reliability":"ok"},"geometry":{"type":"Polygon","coordinates":[[[-95.95815,36.11879],[-95.98697,36.11899],[-95.99218,36.13183],[-95.98888,36.13337],[-95.98339,36.13335],[-95.9834,36.13423],[-95.98177,36.13418],[-95.9818,36.13334],[-95.97729,36.13417],[-95.97729,36.13333],[-95.95596,36.13325],[-95.95602,36.1342],[-95.95091,36.13419],[-95.95049,36.13511],[-95.94909,36.13328],[-95.93588,36.1333],[-95.93588,36.13694],[-95.93054,36.13772],[-95.93032,36.14056],[-95.92252,36.14055],[-95.92248,36.13331],[-95.9069,36.1334],[-95.90697,36.12986],[-95.90459,36.12986],[-95.90457,36.12662],[-95.90624,36.12626],[-95.90631,36.12495],[-95.90459,36.12376],[-95.90456,36.12116],[-95.90607,36.12087],[-95.90616,36.11988],[-95.90902,36.11983],[-95.90901,36.11908],[-95.92237,36.11881],[-95.93048,36.12253],[-95.93064,36.12121],[-95.92766,36.12065],[-95.92756,36.11886],[-95.93802,36.1188],[-95.93807,36.11975],[-95.94029,36.11971],[-95.94027,36.11877],[-95.95817,36.11961],[-95.95815,36.11879]]]}},{"type":"Feature","properties":{"zip":"74119","median_hh_income":56234,"moe":7217,"population":3670,"reliability":"small"},"geometry":{"type":"Polygon","coordinates":[[[-95.99027,36.1328],[-95.99742,36.1407],[-95.99604,36.14062],[-95.99593,36.14498],[-95.99456,36.14527],[-95.99799,36.14546],[-95.99807,36.14791],[-95.9908,36.15006],[-95.99133,36.15099],[-95.99015,36.15143],[-95.98953,36.15051],[-95.98599,36.15175],[-95.98451,36.14886],[-95.98565,36.14847],[-95.98368,36.14426],[-95.98061,36.1434],[-95.98315,36.14237],[-95.98255,36.13991],[-95.98334,36.13711],[-95.98157,36.13795],[-95.98177,36.13418],[-95.99027,36.1328]]]}},{"type":"Feature","properties":{"zip":"74127","median_hh_income":46373,"moe":4485,"population":16324,"reliability":"ok"},"geometry":{"type":"Polygon","coordinates":[[[-96.0908,36.16108],[-96.09131,36.21624],[-96.07248,36.21622],[-96.07247,36.21128],[-96.05472,36.20483],[-96.05471,36.20165],[-96.0531,36.19943],[-96.0533,36.19824],[-96.04334,36.20206],[-96.03718,36.20187],[-96.03717,36.20891],[-96.0376,36.21764],[-96.03846,36.21965],[-96.05085,36.22703],[-96.05496,36.23457],[-96.04995,36.23261],[-96.04612,36.23369],[-96.03643,36.23411],[-96.03569,36.23226],[-96.0292,36.23065],[-96.02067,36.23069],[-96.01977,36.22979],[-96.01976,36.21628],[-96.01163,36.21586],[-96.01081,36.20684],[-96.00979,36.20538],[-96.00137,36.20592],[-96.00119,36.17332],[-96.00297,36.17268],[-96.00317,36.16929],[-96.00201,36.16926],[-96.00188,36.16812],[-96.00315,36.16818],[-96.00316,36.16458],[-96.00204,36.16457],[-96.00263,36.16131],[-95.99777,36.16078],[-95.99904,36.16052],[-96.0017,36.15608],[-96.00154,36.15488],[-96.00025,36.15485],[-95.99922,36.15292],[-96.00075,36.15145],[-95.99867,36.15193],[-95.99818,36.15095],[-95.99936,36.15052],[-95.99799,36.14546],[-95.99456,36.14527],[-95.99593,36.14498],[-95.99604,36.14062],[-95.99742,36.1407],[-95.99027,36.1328],[-95.99218,36.13183],[-96.00083,36.14005],[-96.01037,36.14559],[-96.02048,36.14589],[-96.02618,36.14519],[-96.04106,36.14077],[-96.06918,36.13639],[-96.08338,36.13089],[-96.08373,36.16041],[-96.08294,36.16095],[-96.0908,36.16108]]]}},{"type":"Feature","properties":{"zip":"74126","median_hh_income":42172,"moe":2841,"population":9920,"reliability":"ok"},"geometry":{"type":"Polygon","coordinates":[[[-95.967,36.24229],[-95.96671,36.22695],[-95.96504,36.22699],[-95.965,36.22421],[-95.9661,36.22419],[-95.96606,36.22058],[-95.98453,36.22047],[-95.98454,36.2195],[-95.9857,36.21947],[-95.98787,36.21948],[-95.98787,36.22049],[-96.00142,36.22064],[-96.00137,36.20592],[-96.00979,36.20538],[-96.01081,36.20684],[-96.01163,36.21586],[-96.01976,36.21628],[-96.01977,36.22979],[-96.02048,36.2306],[-96.0292,36.23065],[-96.03569,36.23226],[-96.03643,36.23411],[-96.04612,36.23369],[-96.04995,36.23261],[-96.05496,36.23457],[-96.05085,36.22703],[-96.03846,36.21965],[-96.0376,36.21764],[-96.03717,36.20891],[-96.03718,36.20187],[-96.04334,36.20206],[-96.0533,36.19824],[-96.0531,36.19943],[-96.05471,36.20165],[-96.05472,36.20483],[-96.07247,36.21128],[-96.07248,36.21622],[-96.09059,36.21625],[-96.09116,36.23557],[-96.0941,36.23785],[-96.0954,36.24115],[-96.09922,36.24141],[-96.09901,36.24463],[-96.10299,36.24479],[-96.10316,36.25615],[-96.09892,36.25364],[-96.09997,36.25205],[-96.09915,36.25182],[-96.097,36.2527],[-96.09606,36.25197],[-96.09349,36.25594],[-96.08871,36.25616],[-96.0861,36.25735],[-96.08248,36.2571],[-96.08604,36.2586],[-96.08572,36.25999],[-96.08186,36.25924],[-96.0776,36.25691],[-96.07677,36.2588],[-96.07411,36.25965],[-96.07542,36.2623],[-96.07054,36.26186],[-96.07182,36.26529],[-96.0705,36.26595],[-96.06752,36.26197],[-96.06644,36.26284],[-96.06633,36.26513],[-96.06242,36.26424],[-96.06173,36.26288],[-96.06023,36.26312],[-96.06061,36.262],[-96.05955,36.26076],[-96.06146,36.2578],[-96.05869,36.25789],[-96.05779,36.25961],[-96.05295,36.25885],[-96.05175,36.2562],[-96.05053,36.25596],[-96.04802,36.25805],[-96.04461,36.25747],[-96.04224,36.25967],[-96.04059,36.25992],[-96.0401,36.26229],[-96.0361,36.25997],[-96.03441,36.2604],[-96.0318,36.26349],[-96.03155,36.27241],[-96.0292,36.27119],[-96.02943,36.2735],[-96.02805,36.27344],[-96.0275,36.27227],[-96.02524,36.27232],[-96.02487,36.27005],[-96.02333,36.2706],[-96.02291,36.27327],[-96.0203,36.27349],[-96.01908,36.27236],[-96.01991,36.27403],[-96.01904,36.27455],[-96.01638,36.27293],[-96.01724,36.27443],[-96.01623,36.27505],[-96.01445,36.27268],[-96.01374,36.27334],[-96.01464,36.2752],[-96.01171,36.27551],[-96.01214,36.27691],[-96.00978,36.27626],[-96.00891,36.27788],[-96.00733,36.27576],[-96.0072,36.27758],[-96.00352,36.27955],[-95.99342,36.27809],[-95.99221,36.27681],[-95.99324,36.26787],[-95.99189,36.26691],[-95.99177,36.26406],[-95.96484,36.26335],[-95.96486,36.26223],[-95.96649,36.26223],[-95.96673,36.26041],[-95.96486,36.26042],[-95.96471,36.24957],[-95.96751,36.24957],[-95.96743,36.24602],[-95.97308,36.24591],[-95.97349,36.24241],[-95.967,36.24229]]]}},{"type":"Feature","properties":{"zip":"74103","median_hh_income":76836,"moe":16740,"population":2450,"reliability":"small"},"geometry":{"type":"Polygon","coordinates":[[[-95.99802,36.16124],[-96.00105,36.16129],[-96.00077,36.16242],[-95.99716,36.16207],[-95.99346,36.16346],[-95.99286,36.16221],[-95.99161,36.16235],[-95.98702,36.15365],[-95.9883,36.15321],[-95.98599,36.15175],[-95.98953,36.15051],[-95.99015,36.15143],[-95.99133,36.15099],[-95.9908,36.15006],[-95.99807,36.14791],[-95.99936,36.15052],[-95.99818,36.15095],[-95.99867,36.15193],[-96.00075,36.15145],[-95.99922,36.15292],[-96.00025,36.15485],[-96.00154,36.15488],[-96.0017,36.15608],[-95.99802,36.16124]]]}},{"type":"Feature","properties":{"zip":"74132","median_hh_income":79543,"moe":6918,"population":10858,"reliability":"ok"},"geometry":{"type":"Polygon","coordinates":[[[-96.04462,36.07545],[-95.98607,36.07519],[-95.97869,36.06001],[-95.97627,36.05009],[-95.97589,36.03196],[-95.98496,36.03195],[-95.98775,36.03058],[-95.99158,36.03194],[-96.01003,36.03195],[-96.01202,36.02472],[-96.01147,36.0162],[-96.01212,36.01552],[-96.01866,36.01567],[-96.02079,36.01674],[-96.02851,36.01491],[-96.03102,36.01609],[-96.03127,36.01928],[-96.0335,36.0224],[-96.03378,36.02003],[-96.03484,36.0196],[-96.03801,36.02193],[-96.04282,36.02214],[-96.0445,36.02415],[-96.0485,36.0235],[-96.04848,36.02841],[-96.04966,36.0284],[-96.04962,36.03021],[-96.04848,36.03022],[-96.04847,36.03192],[-96.04746,36.03192],[-96.04738,36.04342],[-96.04402,36.04628],[-96.03853,36.04642],[-96.03843,36.05253],[-96.03396,36.05253],[-96.03396,36.05395],[-96.02994,36.05393],[-96.02955,36.05003],[-96.02953,36.05527],[-96.03396,36.05484],[-96.03366,36.06084],[-96.03298,36.06096],[-96.03515,36.06096],[-96.03546,36.0599],[-96.0374,36.06095],[-96.04045,36.05972],[-96.0417,36.06066],[-96.04772,36.06017],[-96.04775,36.06096],[-96.04153,36.06101],[-96.04082,36.06371],[-96.04192,36.06665],[-96.04753,36.06862],[-96.04725,36.07253],[-96.04462,36.07545]]]}},{"type":"Feature","properties":{"zip":"74136","median_hh_income":51820,"moe":4144,"population":31416,"reliability":"ok"},"geometry":{"type":"Polygon","coordinates":[[[-95.98607,36.07519],[-95.97392,36.07523],[-95.97517,36.07533],[-95.97517,36.07696],[-95.97423,36.07696],[-95.97414,36.07592],[-95.97232,36.07595],[-95.97381,36.07523],[-95.95998,36.07528],[-95.95914,36.07627],[-95.95688,36.07609],[-95.95476,36.078],[-95.95611,36.07599],[-95.95559,36.07529],[-95.9507,36.0753],[-95.9484,36.0771],[-95.94465,36.07719],[-95.94258,36.07699],[-95.94012,36.07533],[-95.90433,36.07539],[-95.90423,36.04956],[-95.90664,36.04958],[-95.90667,36.04695],[-95.90861,36.04642],[-95.97447,36.0463],[-95.97577,36.048],[-95.97869,36.06001],[-95.98607,36.07519]]]}},{"type":"Feature","properties":{"zip":"74110","median_hh_income":42054,"moe":2554,"population":15244,"reliability":"ok"},"geometry":{"type":"Polygon","coordinates":[[[-95.97349,36.17698],[-95.97546,36.17693],[-95.97547,36.17891],[-95.9711,36.17908],[-95.97111,36.18002],[-95.96771,36.18113],[-95.96688,36.18993],[-95.96907,36.1941],[-95.96888,36.19542],[-95.96783,36.19562],[-95.9701,36.19743],[-95.96903,36.19886],[-95.96728,36.1989],[-95.96713,36.20096],[-95.9582,36.20478],[-95.95825,36.20614],[-95.96902,36.20607],[-95.96643,36.20796],[-95.96713,36.20855],[-95.96584,36.20955],[-95.96275,36.20883],[-95.96265,36.20973],[-95.96446,36.21122],[-95.96266,36.21211],[-95.96296,36.21281],[-95.96187,36.2119],[-95.96127,36.21329],[-95.9651,36.21487],[-95.96204,36.21903],[-95.95828,36.22066],[-95.95267,36.22059],[-95.95107,36.21909],[-95.94907,36.22139],[-95.94927,36.22319],[-95.94757,36.22329],[-95.94504,36.22508],[-95.94423,36.21688],[-95.94478,36.21345],[-95.94374,36.2134],[-95.94372,36.21134],[-95.94145,36.21249],[-95.94145,36.20975],[-95.9404,36.20976],[-95.94033,36.2061],[-95.94475,36.20606],[-95.94475,36.20432],[-95.94033,36.20433],[-95.94175,36.19949],[-95.94028,36.19883],[-95.94175,36.19887],[-95.94176,36.19523],[-95.94037,36.1952],[-95.94028,36.17713],[-95.94033,36.1744],[-95.94531,36.17267],[-95.9403,36.17253],[-95.94095,36.16879],[-95.94033,36.15936],[-95.94814,36.16021],[-95.9634,36.15991],[-95.96716,36.15863],[-95.96711,36.16687],[-95.96825,36.16687],[-95.96825,36.16784],[-95.96715,36.16785],[-95.96714,36.17342],[-95.96831,36.17342],[-95.96831,36.17431],[-95.96716,36.17431],[-95.96719,36.17522],[-95.96827,36.17519],[-95.96831,36.17608],[-95.96717,36.17609],[-95.96705,36.18039],[-95.96561,36.18142],[-95.96607,36.18198],[-95.97349,36.17698]]]}},{"type":"Feature","properties":{"zip":"74104","median_hh_income":54691,"moe":4430,"population":12806,"reliability":"ok"},"geometry":{"type":"Polygon","coordinates":[[[-95.95596,36.13325],[-95.97041,36.13336],[-95.97042,36.13505],[-95.96721,36.13504],[-95.96711,36.13804],[-95.96826,36.13808],[-95.96833,36.14061],[-95.96711,36.14058],[-95.9671,36.15413],[-95.96793,36.15412],[-95.96797,36.15506],[-95.96709,36.15508],[-95.96716,36.15863],[-95.9634,36.15991],[-95.94814,36.16021],[-95.94033,36.15936],[-95.94032,36.15469],[-95.94156,36.15468],[-95.94145,36.15272],[-95.94035,36.15274],[-95.94038,36.14419],[-95.94149,36.14419],[-95.94149,36.14238],[-95.94033,36.14236],[-95.94035,36.13324],[-95.94909,36.13328],[-95.95049,36.13511],[-95.95091,36.13419],[-95.95602,36.1342],[-95.95596,36.13325]]]}}]}